NORAD_CAT_ID,OBJECT_NAME,OBJECT_TYPE,EPOCH,MEAN_MOTION,ECCENTRICITY,INCLINATION,RA_OF_ASC_NODE,ARG_OF_PERICENTER,MEAN_ANOMALY,BSTAR,MEAN_MOTION_DOT,MEAN_MOTION_DDOT,TLE_LINE0,TLE_LINE1,TLE_LINE2,SEMIMAJOR_AXIS,PERIOD,APOGEE,PERIGEE,DECAYED
52847.0,STARLINK-4206,PAYLOAD,2023-08-10 21:53:14,15.08836143,0.0001112,53.2167,301.9271,100.4503,259.6615,-7.3236e-05,-1.453e-05,0.0,0 STARLINK-4206,1 52847U 22062T   23222.91196931 -.00001453  00000-0 -73236-4 0  9998,2 52847  53.2167 301.9271 0001112 100.4503 259.6615 15.08836143 64107,6917.892,95.438,540.526,538.988,0.0
52847.0,STARLINK-4206,PAYLOAD,2023-08-11 16:57:51,15.08854601,0.0001013,53.2161,298.359,95.2041,264.9066,0.00064396,9.98e-05,0.0,0 STARLINK-4206,1 52847U 22062T   23223.70684630  .00009980  00000-0  64396-3 0  9991,2 52847  53.2161 298.3590 0001013  95.2041 264.9066 15.08854601 64223,6917.836,95.437,540.402,539.0,0.0
52847.0,STARLINK-4206,PAYLOAD,2023-08-11 21:44:01,15.08839299,0.0001673,53.2164,297.4661,97.4815,262.6368,0.00020544,2.983e-05,0.0,0 STARLINK-4206,1 52847U 22062T   23223.90557096  .00002983  00000-0  20544-3 0  9991,2 52847  53.2164 297.4661 0001673  97.4815 262.6368 15.08839299 64259,6917.883,95.438,540.905,538.59,0.0
52847.0,STARLINK-4206,PAYLOAD,2023-08-13 11:53:16,15.08842955,9.27e-05,53.2157,290.3315,90.9648,269.145,0.00028411,4.237e-05,0.0,0 STARLINK-4206,1 52847U 22062T   23225.49533044  .00004237  00000-0  28411-3 0  9999,2 52847  53.2157 290.3315 0000927  90.9648 269.1450 15.08842955 64495,6917.871,95.437,540.378,539.095,0.0
52847.0,STARLINK-4206,PAYLOAD,2023-08-13 21:25:35,15.08833055,0.0001516,53.2151,288.5446,90.4707,269.6459,2.0532e-05,3.9e-07,0.0,0 STARLINK-4206,1 52847U 22062T   23225.89277461  .00000039  00000-0  20532-4 0  9994,2 52847  53.2151 288.5446 0001516  90.4707 269.6459 15.08833055 64551,6917.902,95.438,540.815,538.718,0.0
52847.0,STARLINK-4206,PAYLOAD,2023-08-14 16:30:12,15.08846541,9.62e-05,53.2151,284.9779,88.3248,271.7855,0.00026505,3.934e-05,0.0,0 STARLINK-4206,1 52847U 22062T   23226.68765000  .00003934  00000-0  26505-3 0  9995,2 52847  53.2151 284.9779 0000962  88.3248 271.7855 15.08846541 64671,6917.86,95.437,540.391,539.06,0.0
52847.0,STARLINK-4206,PAYLOAD,2023-08-14 21:16:22,15.08840215,0.0001033,53.2159,284.0834,88.6415,271.4695,0.00012968,1.777e-05,0.0,0 STARLINK-4206,1 52847U 22062T   23226.88637262  .00001777  00000-0  12968-3 0  9996,2 52847  53.2159 284.0834 0001033  88.6415 271.4695 15.08840215 64706,6917.88,95.438,540.459,539.03,0.0
52847.0,STARLINK-4206,PAYLOAD,2023-08-16 09:50:14,15.0884093,0.0001293,53.2156,277.2464,76.2393,283.8743,0.00010912,1.449e-05,0.0,0 STARLINK-4206,1 52847U 22062T   23228.40989564  .00001449  00000-0  10912-3 0  9994,2 52847  53.2156 277.2464 0001293  76.2393 283.8743 15.08840930 64932,6917.878,95.437,540.637,538.848,0.0
52847.0,STARLINK-4206,PAYLOAD,2023-08-17 14:27:11,15.0884845,0.0001312,53.2159,271.8911,98.2904,261.8237,0.00021256,3.097e-05,0.0,0 STARLINK-4206,1 52847U 22062T   23229.60221076  .00003097  00000-0  21256-3 0  9998,2 52847  53.2159 271.8911 0001312  98.2904 261.8237 15.08848450 65116,6917.855,95.437,540.627,538.812,0.0
52847.0,STARLINK-4206,PAYLOAD,2023-08-18 03:10:16,15.08837583,0.000135,53.2156,269.5134,87.9428,272.1718,6.2596e-05,7.08e-06,0.0,0 STARLINK-4206,1 52847U 22062T   23230.13213709  .00000708  00000-0  62596-4 0  9991,2 52847  53.2156 269.5134 0001350  87.9428 272.1718 15.08837583 65194,6917.888,95.438,540.687,538.819,0.0
52847.0,STARLINK-4206,PAYLOAD,2023-08-19 09:22:36,15.08843684,0.0001243,53.2154,263.8641,90.0768,270.0367,7.6685e-05,9.33e-06,0.0,0 STARLINK-4206,1 52847U 22062T   23231.39069446  .00000933  00000-0  76685-4 0  9991,2 52847  53.2154 263.8641 0001243  90.0768 270.0367 15.08843684 65382,6917.869,95.437,540.594,538.874,0.0
52847.0,STARLINK-4206,PAYLOAD,2023-08-20 02:51:50,15.08834805,0.0001242,53.2153,260.5927,100.3947,259.7185,6.617e-05,7.65e-06,0.0,0 STARLINK-4206,1 52847U 22062T   23232.11933932  .00000765  00000-0  66170-4 0  9993,2 52847  53.2153 260.5927 0001242 100.3947 259.7185 15.08834805 65494,6917.896,95.438,540.62,538.902,0.0
52847.0,STARLINK-4206,PAYLOAD,2023-08-21 10:39:33,15.08842423,0.0001219,53.2155,254.6458,89.3092,270.804,9.4447e-05,1.216e-05,0.0,0 STARLINK-4206,1 52847U 22062T   23233.44413937  .00001216  00000-0  94447-4 0  9998,2 52847  53.2155 254.6458 0001219  89.3092 270.8040 15.08842423 65691,6917.873,95.437,540.581,538.895,0.0
52847.0,STARLINK-4206,PAYLOAD,2023-08-22 13:41:06,15.08847135,0.0001272,53.2159,249.5899,86.0647,274.049,0.00013312,1.832e-05,0.0,0 STARLINK-4206,1 52847U 22062T   23234.57021565  .00001832  00000-0  13312-3 0  9990,2 52847  53.2159 249.5899 0001272  86.0647 274.0490 15.08847135 65865,6917.859,95.437,540.604,538.844,0.0
52847.0,STARLINK-4206,PAYLOAD,2023-08-23 11:56:30,15.08841901,0.0001411,53.2166,245.427,80.0222,280.0929,6.7189e-05,7.82e-06,0.0,0 STARLINK-4206,1 52847U 22062T   23235.49758043  .00000782  00000-0  67189-4 0  9995,2 52847  53.2166 245.4270 0001411  80.0222 280.0929 15.08841901 66005,6917.875,95.437,540.716,538.763,0.0
52847.0,STARLINK-4206,PAYLOAD,2023-08-24 11:47:18,15.08841915,0.0001301,53.2161,240.9664,89.5117,270.6024,2.6195e-05,1.29e-06,0.0,0 STARLINK-4206,1 52847U 22062T   23236.49118075  .00000129  00000-0  26195-4 0  9998,2 52847  53.2161 240.9664 0001301  89.5117 270.6024 15.08841915 65669,6917.875,95.437,540.64,538.84,0.0
52847.0,STARLINK-4206,PAYLOAD,2023-08-25 05:16:32,15.0884198,0.000126,53.2158,237.6971,84.9113,275.2023,0.00012999,1.782e-05,0.0,0 STARLINK-4206,1 52847U 22062T   23237.21981704  .00001782  00000-0  12999-3 0  9998,2 52847  53.2158 237.6971 0001260  84.9113 275.2023 15.08841980 66267,6917.874,95.437,540.611,538.868,0.0
52847.0,STARLINK-4206,PAYLOAD,2023-08-25 11:38:04,15.08846228,0.000127,53.216,236.5043,97.0885,263.0251,0.00015916,2.246e-05,0.0,0 STARLINK-4206,1 52847U 22062T   23237.48477299  .00002246  00000-0  15916-3 0  9994,2 52847  53.2160 236.5043 0001270  97.0885 263.0251 15.08846228 65818,6917.861,95.437,540.605,538.848,0.0
52847.0,STARLINK-4206,PAYLOAD,2023-08-26 09:53:29,15.08833544,0.000137,53.2165,232.3396,107.9086,252.2056,2.3461e-05,8.5e-07,0.0,0 STARLINK-4206,1 52847U 22062T   23238.41214555  .00000085  00000-0  23461-4 0  9996,2 52847  53.2165 232.3396 0001370 107.9086 252.2056 15.08833544 66443,6917.9,95.438,540.713,538.817,0.0
52847.0,STARLINK-4206,PAYLOAD,2023-08-26 11:28:52,15.08839493,0.0001434,53.2162,232.0435,109.8042,250.3105,5.5241e-05,5.91e-06,0.0,0 STARLINK-4206,1 52847U 22062T   23238.47838086  .00000591  00000-0  55241-4 0  9996,2 52847  53.2162 232.0435 0001434 109.8042 250.3105 15.08839493 65964,6917.882,95.438,540.739,538.755,0.0
52847.0,STARLINK-4206,PAYLOAD,2023-08-27 00:11:57,15.08836164,0.0001683,53.2182,229.6662,71.6809,288.4367,-2.1074e-06,-3.22e-06,0.0,0 STARLINK-4206,1 52847U 22062T   23239.00830817 -.00000322  00000-0 -21074-5 0  9992,2 52847  53.2182 229.6662 0001683  71.6809 288.4367 15.08836164 66531,6917.892,95.438,540.921,538.593,0.0
52847.0,STARLINK-4206,PAYLOAD,2023-08-27 04:58:07,15.08836872,0.0001393,53.2172,228.773,100.1599,259.955,-3.2654e-05,-8.08e-06,0.0,0 STARLINK-4206,1 52847U 22062T   23239.20702740 -.00000808  00000-0 -32654-4 0  9991,2 52847  53.2172 228.7730 0001393 100.1599 259.9550 15.08836872 66070,6917.89,95.438,540.719,538.791,0.0
52847.0,STARLINK-4206,PAYLOAD,2023-08-27 09:44:16,15.08840421,0.0001177,53.216,227.8842,88.6819,271.4308,-3.9955e-05,-9.24e-06,0.0,0 STARLINK-4206,1 52847U 22062T   23239.40574494 -.00000924  00000-0 -39955-4 0  9996,2 52847  53.2160 227.8842 0001177  88.6819 271.4308 15.08840421 66105,6917.879,95.438,540.558,538.93,0.0
52847.0,STARLINK-4206,PAYLOAD,2023-08-28 01:38:08,15.08781263,0.0001603,53.2166,224.9102,107.2069,252.9099,0.00074605,0.00011586,0.0,0 STARLINK-4206,1 52847U 22062T   23240.06815086  .00011586  00000-0  74605-3 0  9999,2 52847  53.2166 224.9102 0001603 107.2069 252.9099 15.08781263 66690,6918.06,95.441,541.034,538.816,0.0
52847.0,STARLINK-4206,PAYLOAD,2023-08-28 09:35:04,15.08794468,0.0001583,53.2163,223.4234,103.5763,256.5405,0.00078483,0.00012209,0.0,0 STARLINK-4206,1 52847U 22062T   23240.39935459  .00012209  00000-0  78483-3 0  9993,2 52847  53.2163 223.4234 0001583 103.5763 256.5405 15.08794468 66742,6918.02,95.44,540.98,538.789,0.0
52847.0,STARLINK-4206,PAYLOAD,2023-08-28 15:56:36,15.08840801,0.0001295,53.2163,222.2334,100.85,259.2638,-2.9052e-06,-3.34e-06,0.0,0 STARLINK-4206,1 52847U 22062T   23240.66430735 -.00000334  00000-0 -29052-5 0  9998,2 52847  53.2163 222.2334 0001295 100.8500 259.2638 15.08840801 66784,6917.878,95.438,540.639,538.847,0.0
52847.0,STARLINK-4206,PAYLOAD,2023-08-29 07:50:27,15.08844608,0.0001379,53.2165,219.2595,93.7229,266.3921,0.00016237,2.297e-05,0.0,0 STARLINK-4206,1 52847U 22062T   23241.32670342  .00002297  00000-0  16237-3 0  9999,2 52847  53.2165 219.2595 0001379  93.7229 266.3921 15.08844608 66392,6917.866,95.437,540.685,538.777,0.0
52847.0,STARLINK-4206,PAYLOAD,2023-08-30 06:05:51,15.08838265,0.000135,53.2159,215.0941,94.876,265.2386,1.3981e-06,-2.66e-06,0.0,0 STARLINK-4206,1 52847U 22062T   23242.25407369 -.00000266  00000-0  13981-5 0  9999,2 52847  53.2159 215.0941 0001350  94.8760 265.2386 15.08838265 67021,6917.886,95.438,540.685,538.817,0.0
52847.0,STARLINK-4206,PAYLOAD,2023-08-30 15:38:10,15.08842872,0.0001434,53.2163,213.3113,85.9499,274.1657,3.7895e-05,3.15e-06,0.0,0 STARLINK-4206,1 52847U 22062T   23242.65151050  .00000315  00000-0  37895-4 0  9999,2 52847  53.2163 213.3113 0001434  85.9499 274.1657 15.08842872 66591,6917.872,95.437,540.729,538.745,0.0
52847.0,STARLINK-4206,PAYLOAD,2023-08-31 04:21:15,15.08847689,0.0001345,53.2163,210.9319,90.9419,269.1727,0.00010904,1.448e-05,0.0,0 STARLINK-4206,1 52847U 22062T   23243.18142479  .00001448  00000-0  10904-3 0  9992,2 52847  53.2163 210.9319 0001345  90.9419 269.1727 15.08847689 67168,6917.857,95.437,540.652,538.791,0.0
